{"type": "FeatureCollection", "features": [ {"type": "Feature", "properties": {"norad_id": 30224, "name": "FENGYUN 1C DEB", "group": "fengyun-1c-debris", "lat": 60.93079979164764, "lon": 16.72672605271204, "alt_km": 939.391172315768, "timestamp": "2025-12-21T07:34:34.791867+00:00", "meta": {"OBJECT_NAME": "FENGYUN 1C DEB", "OBJECT_ID": "1999-025WH", "EPOCH": "2025-12-20T23:12:55.082016", "MEAN_MOTION": 13.89873625, "ECCENTRICITY": 0.01109917, "INCLINATION": 99.4829, "RA_OF_ASC_NODE": 33.8697, "ARG_OF_PERICENTER": 321.1548, "MEAN_ANOMALY": 157.8588, "EPHEMERIS_TYPE": 0, "CLASSIFICATION_TYPE": "U", "NORAD_CAT_ID": 30224, "ELEMENT_SET_NO": 999, "REV_AT_EPOCH": 95855, "BSTAR": 0.00029009004, "MEAN_MOTION_DOT": 3.28e-06, "MEAN_MOTION_DDOT": 0}, "tle": {"line1": "1 30224U 99025WH  25354.96730419  .00000328  00000+0  29009-3 0  9999", "line2": "2 30224  99.4829  33.8697 0110991 321.1548 157.8588 13.89873625958551"}}, "geometry": {"type": "Point", "coordinates": [16.72672605271204, 60.93079979164764]}}, {"type": "Feature", "properties": {"norad_id": 30225, "name": "FENGYUN 1C DEB", "group": "fengyun-1c-debris", "lat": -68.6444164244658, "lon": 44.7755093096236, "alt_km": 896.9432713085507, "timestamp": "2025-12-21T07:34:34.791877+00:00", "meta": {"OBJECT_NAME": "FENGYUN 1C DEB", "OBJECT_ID": "1999-025WJ", "EPOCH": "2025-12-19T00:15:57.318048", "MEAN_MOTION": 14.15188349, "ECCENTRICITY": 0.010038, "INCLINATION": 98.6591, "RA_OF_ASC_NODE": 19.6, "ARG_OF_PERICENTER": 68.1666, "MEAN_ANOMALY": 7.7254, "EPHEMERIS_TYPE": 0, "CLASSIFICATION_TYPE": "U", "NORAD_CAT_ID": 30225, "ELEMENT_SET_NO": 999, "REV_AT_EPOCH": 97625, "BSTAR": 0.00014005753, "MEAN_MOTION_DOT": 2.44e-06, "MEAN_MOTION_DDOT": 0}, "tle": {"line1": "1 30225U 99025WJ  25353.01108007  .00000244  00000+0  14006-3 0  9995", "line2": "2 30225  98.6591  19.6000 0100380  68.1666   7.7254 14.15188349976251"}}, "geometry": {"type": "Point", "coordinates": [44.7755093096236, -68.6444164244658]}}, {"type": "Feature", "properties": {"norad_id": 30229, "name": "FENGYUN 1C DEB", "group": "fengyun-1c-debris", "lat": 48.845039974427635, "lon": -113.7316320514334, "alt_km": 698.0329233516359, "timestamp": "2025-12-21T07:34:34.791889+00:00", "meta": {"OBJECT_NAME": "FENGYUN 1C DEB", "OBJECT_ID": "1999-025WN", "EPOCH": "2025-12-20T15:14:52.537920", "MEAN_MOTION": 14.60664224, "ECCENTRICITY": 0.0037039, "INCLINATION": 99.0619, "RA_OF_ASC_NODE": 55.0036, "ARG_OF_PERICENTER": 16.1683, "MEAN_ANOMALY": 138.2126, "EPHEMERIS_TYPE": 0, "CLASSIFICATION_TYPE": "U", "NORAD_CAT_ID": 30229, "ELEMENT_SET_NO": 999, "REV_AT_EPOCH": 99041, "BSTAR": 0.0010399, "MEAN_MOTION_DOT": 5.058e-05, "MEAN_MOTION_DDOT": 0}, "tle": {"line1": "1 30229U 99025WN  25354.63533030  .00005058  00000+0  10399-2 0  9994", "line2": "2 30229  99.0619  55.0036 0037039  16.1683 138.2126 14.60664224990419"}}, "geometry": {"type": "Point", "coordinates": [-113.7316320514334, 48.845039974427635]}}, {"type": "Feature", "properties": {"norad_id": 30231, "name": "FENGYUN 1C DEB", "group": "fengyun-1c-debris", "lat": -73.20740269281909, "lon": 70.82027171001478, "alt_km": 844.6686598520491, "timestamp": "2025-12-21T07:34:34.791898+00:00", "meta": {"OBJECT_NAME": "FENGYUN 1C DEB", "OBJECT_ID": "1999-025WQ", "EPOCH": "2025-12-20T17:12:44.415072", "MEAN_MOTION": 14.11660896, "ECCENTRICITY": 0.01280461, "INCLINATION": 98.8048, "RA_OF_ASC_NODE": 39.3291, "ARG_OF_PERICENTER": 6.6662, "MEAN_ANOMALY": 119.2958, "EPHEMERIS_TYPE": 0, "CLASSIFICATION_TYPE": "U", "NORAD_CAT_ID": 30231, "ELEMENT_SET_NO": 999, "REV_AT_EPOCH": 97132, "BSTAR": 0.00043248704, "MEAN_MOTION_DOT": 8.06e-06, "MEAN_MOTION_DDOT": 0}, "tle": {"line1": "1 30231U 99025WQ  25354.71718073  .00000806  00000+0  43249-3 0  9995", "line2": "2 30231  98.8048  39.3291 0128046   6.6662 119.2958 14.11660896971321"}}, "geometry": {"type": "Point", "coordinates": [70.82027171001478, -73.20740269281909]}}, {"type": "Feature", "properties": {"norad_id": 30232, "name": "FENGYUN 1C DEB", "group": "fengyun-1c-debris", "lat": 29.792245824754303, "lon": -169.07897860140588, "alt_km": 641.4416742193862, "timestamp": "2025-12-21T07:34:34.791907+00:00", "meta": {"OBJECT_NAME": "FENGYUN 1C DEB", "OBJECT_ID": "1999-025WR", "EPOCH": "2025-12-20T20:01:07.981824", "MEAN_MOTION": 14.6364901, "ECCENTRICITY": 0.01355137, "INCLINATION": 98.6929, "RA_OF_ASC_NODE": 195.4385, "ARG_OF_PERICENTER": 324.7466, "MEAN_ANOMALY": 48.1836, "EPHEMERIS_TYPE": 0, "CLASSIFICATION_TYPE": "U", "NORAD_CAT_ID": 30232, "ELEMENT_SET_NO": 999, "REV_AT_EPOCH": 99870, "BSTAR": 0.00048235742, "MEAN_MOTION_DOT": 2.804e-05, "MEAN_MOTION_DDOT": 0}, "tle": {"line1": "1 30232U 99025WR  25354.83412016  .00002804  00000+0  48236-3 0  9998", "line2": "2 30232  98.6929 195.4385 0135513 324.7466  48.1836 14.63649010998707"}}, "geometry": {"type": "Point", "coordinates": [-169.07897860140588, 29.792245824754303]}}, {"type": "Feature", "properties": {"norad_id": 30234, "name": "FENGYUN 1C DEB", "group": "fengyun-1c-debris", "lat": -69.41907282101565, "lon": 29.708227447399253, "alt_km": 868.5268338197584, "timestamp": "2025-12-21T07:34:34.791916+00:00", "meta": {"OBJECT_NAME": "FENGYUN 1C DEB", "OBJECT_ID": "1999-025WT", "EPOCH": "2025-12-20T19:11:38.309280", "MEAN_MOTION": 14.16874666, "ECCENTRICITY": 0.00668158, "INCLINATION": 98.6334, "RA_OF_ASC_NODE": 5.3409, "ARG_OF_PERICENTER": 52.3063, "MEAN_ANOMALY": 126.9822, "EPHEMERIS_TYPE": 0, "CLASSIFICATION_TYPE": "U", "NORAD_CAT_ID": 30234, "ELEMENT_SET_NO": 999, "REV_AT_EPOCH": 97570, "BSTAR": 0.00024447842, "MEAN_MOTION_DOT": 4.59e-06, "MEAN_MOTION_DDOT": 0}, "tle": {"line1": "1 30234U 99025WT  25354.79974895  .00000459  00000+0  24448-3 0  9996", "line2": "2 30234  98.6334   5.3409 0066815  52.3063 126.9822 14.16874666975700"}}, "geometry": {"type": "Point", "coordinates": [29.708227447399253, -69.41907282101565]}}, {"type": "Feature", "properties": {"norad_id": 30235, "name": "FENGYUN 1C DEB", "group": "fengyun-1c-debris", "lat": 1.9696804812839948, "lon": 12.930746065515592, "alt_km": 959.9723271206421, "timestamp": "2025-12-21T07:34:34.791926+00:00", "meta": {"OBJECT_NAME": "FENGYUN 1C DEB", "OBJECT_ID": "1999-025WU", "EPOCH": "2025-12-20T20:29:37.590720", "MEAN_MOTION": 14.08788381, "ECCENTRICITY": 0.01536933, "INCLINATION": 98.7488, "RA_OF_ASC_NODE": 12.7859, "ARG_OF_PERICENTER": 215.51, "MEAN_ANOMALY": 325.0117, "EPHEMERIS_TYPE": 0, "CLASSIFICATION_TYPE": "U", "NORAD_CAT_ID": 30235, "ELEMENT_SET_NO": 999, "REV_AT_EPOCH": 97007, "BSTAR": 0.00020458987, "MEAN_MOTION_DOT": 3.5e-06, "MEAN_MOTION_DDOT": 0}, "tle": {"line1": "1 30235U 99025WU  25354.85390730  .00000350  00000+0  20459-3 0  9992", "line2": "2 30235  98.7488  12.7859 0153693 215.5100 325.0117 14.08788381970072"}}, "geometry": {"type": "Point", "coordinates": [12.930746065515592, 1.9696804812839948]}}, {"type": "Feature", "properties": {"norad_id": 30237, "name": "FENGYUN 1C DEB", "group": "fengyun-1c-debris", "lat": -25.94786869582111, "lon": -85.99586419720626, "alt_km": 757.6565376441831, "timestamp": "2025-12-21T07:34:34.791935+00:00", "meta": {"OBJECT_NAME": "FENGYUN 1C DEB", "OBJECT_ID": "1999-025WW", "EPOCH": "2025-12-20T19:33:13.457376", "MEAN_MOTION": 14.40993207, "ECCENTRICITY": 0.00146815, "INCLINATION": 98.8253, "RA_OF_ASC_NODE": 97.823, "ARG_OF_PERICENTER": 280.1187, "MEAN_ANOMALY": 209.0258, "EPHEMERIS_TYPE": 0, "CLASSIFICATION_TYPE": "U", "NORAD_CAT_ID": 30237, "ELEMENT_SET_NO": 999, "REV_AT_EPOCH": 97814, "BSTAR": 0.0014453415, "MEAN_MOTION_DOT": 4.606e-05, "MEAN_MOTION_DDOT": 0}, "tle": {"line1": "1 30237U 99025WW  25354.81473909  .00004606  00000+0  14453-2 0  9994", "line2": "2 30237  98.8253  97.8230 0014681 280.1187 209.0258 14.40993207978142"}}, "geometry": {"type": "Point", "coordinates": [-85.99586419720626, -25.94786869582111]}}, {"type": "Feature", "properties": {"norad_id": 30239, "name": "FENGYUN 1C DEB", "group": "fengyun-1c-debris", "lat": 79.96270892413479, "lon": 33.29237822922153, "alt_km": 1583.9966952232508, "timestamp": "2025-12-21T07:34:34.791944+00:00", "meta": {"OBJECT_NAME": "FENGYUN 1C DEB", "OBJECT_ID": "1999-025WY", "EPOCH": "2025-12-20T16:22:31.490688", "MEAN_MOTION": 11.38228412, "ECCENTRICITY": 0.13506288, "INCLINATION": 99.5685, "RA_OF_ASC_NODE": 140.5307, "ARG_OF_PERICENTER": 16.2487, "MEAN_ANOMALY": 347.7776, "EPHEMERIS_TYPE": 0, "CLASSIFICATION_TYPE": "U", "NORAD_CAT_ID": 30239, "ELEMENT_SET_NO": 999, "REV_AT_EPOCH": 54625, "BSTAR": 0.021354231, "MEAN_MOTION_DOT": 7.215e-05, "MEAN_MOTION_DDOT": 0}, "tle": {"line1": "1 30239U 99025WY  25354.68230892  .00007215  00000+0  21354-1 0  9999", "line2": "2 30239  99.5685 140.5307 1350628  16.2487 347.7776 11.38228412546259"}}, "geometry": {"type": "Point", "coordinates": [33.29237822922153, 79.96270892413479]}}, {"type": "Feature", "properties": {"norad_id": 30241, "name": "FENGYUN 1C DEB", "group": "fengyun-1c-debris", "lat": -65.89365041797583, "lon": -72.77319371937233, "alt_km": 972.5064769880182, "timestamp": "2025-12-21T07:34:34.791953+00:00", "meta": {"OBJECT_NAME": "FENGYUN 1C DEB", "OBJECT_ID": "1999-025XA", "EPOCH": "2025-12-20T22:25:31.607904", "MEAN_MOTION": 14.09554568, "ECCENTRICITY": 0.01466464, "INCLINATION": 99.149, "RA_OF_ASC_NODE": 127.9491, "ARG_OF_PERICENTER": 58.3358, "MEAN_ANOMALY": 55.787, "EPHEMERIS_TYPE": 0, "CLASSIFICATION_TYPE": "U", "NORAD_CAT_ID": 30241, "ELEMENT_SET_NO": 999, "REV_AT_EPOCH": 97027, "BSTAR": 0.00013545879, "MEAN_MOTION_DOT": 2.17e-06, "MEAN_MOTION_DDOT": 0}, "tle": {"line1": "1 30241U 99025XA  25354.93439361  .00000217  00000+0  13546-3 0  9993", "line2": "2 30241  99.1490 127.9491 0146646  58.3358  55.7870 14.09554568970270"}}, "geometry": {"type": "Point", "coordinates": [-72.77319371937233, -65.89365041797583]}}]}